DMSP 5D-3 F16 (USA 172) 
1 28054U 03048A   26019.62567657  .00000099  00000+0  75551-4 0  9990
2 28054  99.0024  42.3771 0006900 200.6187 268.1302 14.14439144148480
METEOSAT-9 (MSG-2)      
1 28912U 05049B   26018.73411382  .00000136  00000+0  00000+0 0  9994
2 28912   9.0214  55.6246 0001633 190.5496 181.9016  1.00267317  5508
DMSP 5D-3 F17 (USA 191) 
1 29522U 06050A   26019.60294198  .00000126  00000+0  87299-4 0  9995
2 29522  98.7396  29.2047 0011009 118.2522 241.9765 14.14937763991402
FENGYUN 3A              
1 32958U 08026A   26019.60703365  .00000094  00000+0  65065-4 0  9999
2 32958  98.6743 323.3455 0008402 189.2646 170.8376 14.19527860914325
GOES 14                 
1 35491U 09033A   26019.55457461  .00000109  00000+0  00000+0 0  9990
2 35491   1.3004  84.9817 0001025 255.9961 204.3416  1.00103911  5106
DMSP 5D-3 F18 (USA 210) 
1 35951U 09057A   26019.56203088  .00000256  00000+0  15605-3 0  9996
2 35951  98.8882   0.7834 0010469 318.0614  41.9756 14.14797254838570
EWS-G2 (GOES 15)        
1 36411U 10008A   26019.59314152  .00000051  00000+0  00000+0 0  9996
2 36411   0.9041  85.9215 0005084 191.6378 116.3651  1.00274191 58149
COMS 1                  
1 36744U 10032A   26019.46374738 -.00000332  00000+0  00000+0 0  9997
2 36744   4.4286  77.5322 0000853 235.3927 101.0607  1.00271523 49596
FENGYUN 3B              
1 37214U 10059A   26019.66103630 -.00000071  00000+0 -13322-4 0  9999
2 37214  98.9858  64.8946 0021103 246.8501 223.7420 14.14801004786426
SUOMI NPP               
1 37849U 11061A   26019.61507914  .00000076  00000+0  57195-4 0  9994
2 37849  98.7817 321.6240 0002347  55.5899 304.5499 14.19526391737369
METEOSAT-10 (MSG-3)     
1 38552U 12035B   26019.29569970  .00000006  00000+0  00000+0 0  9993
2 38552   4.3154  61.6170 0001850 282.3577 241.1995  1.00271433 49365
METOP-B                 
1 38771U 12049A   26019.59355868  .00000122  00000+0  75665-4 0  9996
2 38771  98.6741  73.9006 0003171  67.4671 292.6841 14.21423891692151
INSAT-3D                
1 39216U 13038B   26019.60666160 -.00000326  00000+0  00000+0 0  9995
2 39216   1.5413  84.5477 0001708 168.1997 214.1076  1.00267332 45597
FENGYUN 3C              
1 39260U 13052A   26019.62719625  .00000112  00000+0  77981-4 0  9996
2 39260  98.4810   0.4655 0015830  90.8660 269.4329 14.15709220637549
METEOR-M 2              
1 40069U 14037A   26019.61998653  .00000096  00000+0  63248-4 0  9990
2 40069  98.4942   0.7609 0006823 104.3706 255.8230 14.21403532598214
HIMAWARI-8              
1 40267U 14060A   26019.61862043  .00000000  00000+0  00000+0 0  9996
2 40267   0.0185 248.6619 0000890  73.2611 160.4289  1.00268608 41273
FENGYUN 2G              
1 40367U 14090A   26019.61840839 -.00000291  00000+0  00000+0 0  9992
2 40367   5.2618  74.6406 0001401 187.6827 178.9855  1.00271415 40510
METEOSAT-11 (MSG-4)     
1 40732U 15034A   26019.58291479  .00000077  00000+0  00000+0 0  9994
2 40732   2.8309  71.8760 0000313 162.9106 103.5605  1.00279361  5724
ELEKTRO-L 2             
1 41105U 15074A   26019.36416678 -.00000106  00000+0  00000+0 0  9993
2 41105   6.3190  72.3741 0003560 221.3142 301.6450  1.00271055 37016
INSAT-3DR               
1 41752U 16054A   26019.57420559 -.00000063  00000+0  00000+0 0  9998
2 41752   0.1007  88.0623 0013931 187.2690 124.3475  1.00271638 34322
HIMAWARI-9              
1 41836U 16064A   26019.61862046 -.00000260  00000+0  00000+0 0  9997
2 41836   0.0061 286.6205 0000735  69.6501 126.1982  1.00271755 33724
GOES 16                 
1 41866U 16071A   26019.56020799 -.00000076  00000+0  00000+0 0  9998
2 41866   0.1151  96.7328 0002880 185.3733 293.8147  1.00271549 33614
FENGYUN 4A              
1 41882U 16077A   26019.60553492 -.00000344  00000+0  00000+0 0  9996
2 41882   1.9440  82.0134 0005035 133.1718 245.5620  1.00267771 33447
CYGFM05                 
1 41884U 16078A   26019.58426469  .00019554  00000+0  34666-3 0  9990
2 41884  34.9576 159.6128 0008203 176.0944 183.9844 15.49268848505638
CYGFM04                 
1 41885U 16078B   26019.60071193  .00022313  00000+0  35571-3 0  9997
2 41885  34.9336 133.1432 0007359 204.7478 155.2892 15.52232678505822
CYGFM02                 
1 41886U 16078C   26019.62729202  .00024374  00000+0  36732-3 0  9990
2 41886  34.9424 130.7781 0008902 205.2995 154.7293 15.53755680505964
CYGFM01                 
1 41887U 16078D   26019.56153429  .00021040  00000+0  36466-3 0  9997
2 41887  34.9408 161.8335 0007870 167.4906 192.6012 15.49900788505574
CYGFM08                 
1 41888U 16078E   26019.65077692  .00022389  00000+0  36984-3 0  9997
2 41888  34.9444 143.7771 0009407 194.1464 165.8996 15.51223917505828
CYGFM07                 
1 41890U 16078G   26019.57386515  .00022186  00000+0  35862-3 0  9997
2 41890  34.9463 133.0428 0007773 210.8735 149.1531 15.51846019505839
CYGFM03                 
1 41891U 16078H   26019.60603648  .00021855  00000+0  35479-3 0  9997
2 41891  34.9419 134.7763 0007254 196.2506 163.7984 15.51732531505813
FENGYUN 3D              
1 43010U 17072A   26019.65504262 -.00000232  00000+0 -88147-4 0  9993
2 43010  98.9941 351.5427 0002443 100.5024 259.6427 14.19695886423913
NOAA 20 (JPSS-1)        
1 43013U 17073A   26019.55911981  .00000079  00000+0  58510-4 0  9994
2 43013  98.7641 320.4504 0001323  32.6518 327.4739 14.19537050423380
GOES 17                 
1 43226U 18022A   26019.56324133 -.00000169  00000+0  00000+0 0  9990
2 43226   0.5537  88.5396 0002776 201.8721 301.7937  1.00272688 28937
FENGYUN 2H              
1 43491U 18050A   26019.59669487 -.00000114  00000+0  00000+0 0  9992
2 43491   2.6469  80.9139 0002160 177.1144 154.8680  1.00268517 27948
METOP-C                 
1 43689U 18087A   26019.62023914  .00000120  00000+0  74554-4 0  9990
2 43689  98.6869  81.7984 0000780 174.8233 185.2952 14.21499860373726
GEO-KOMPSAT-2A          
1 43823U 18100A   26019.32109318 -.00000329  00000+0  00000+0 0  9998
2 43823   0.0258 125.3242 0000810 285.2930 311.9381  1.00270182 26133
METEOR-M2 2             
1 44387U 19038A   26019.60126774 -.00000219  00000+0 -75136-4 0  9997
2 44387  98.9008   4.8015 0002334  85.0475 275.0969 14.24308092340144
ARKTIKA-M 1             
1 47719U 21016A   26017.96056216 -.00000141  00000+0  00000+0 0  9994
2 47719  63.1884  79.0082 7222092 269.2669  15.3828  2.00632297 35770
FENGYUN 3E              
1 49008U 21062A   26019.58611515 -.00000153  00000+0 -51205-4 0  9999
2 49008  98.7481  24.6604 0002215 127.7537 232.3840 14.19884915235499
GOES 18                 
1 51850U 22021A   26019.55388127  .00000000  00000+0  00000+0 0  9991
2 51850   0.0193  97.8397 0000676 257.2652 186.2394  1.00270296  5101
NOAA 21 (JPSS-2)        
1 54234U 22150A   26019.59425193  .00000067  00000+0  52811-4 0  9997
2 54234  98.7505 320.4385 0000607 256.3203 103.7906 14.19535690165464
METEOSAT-12 (MTG-I1)    
1 54743U 22170C   26019.29561303  .00000009  00000+0  00000+0 0  9999
2 54743   0.7320  29.8533 0001482 260.3365 294.7305  1.00275551 11487
TIANMU-1 03             
1 55973U 23039A   26019.60005007  .00016113  00000+0  37739-3 0  9995
2 55973  97.5118 188.3483 0002434 281.2867  78.8106 15.42189255157896
TIANMU-1 04             
1 55974U 23039B   26019.63583297  .00016561  00000+0  38312-3 0  9996
2 55974  97.5050 187.5614 0003124 273.7282  86.3608 15.42551754157903
TIANMU-1 05             
1 55975U 23039C   26019.57486256  .00015735  00000+0  36921-3 0  9993
2 55975  97.5097 187.9919 0002451 311.8252  48.2785 15.42139654157870
TIANMU-1 06             
1 55976U 23039D   26019.63678899  .00016333  00000+0  37733-3 0  9994
2 55976  97.5108 188.5525 0002712 302.2289  57.8694 15.42597211157904
FENGYUN 3G              
1 56232U 23055A   26019.48695642  .00032183  00000+0  49736-3 0  9993
2 56232  49.9941  32.7787 0004150  49.6984 310.4346 15.53746519156896
METEOR-M2 3             
1 57166U 23091A   26019.63358985  .00000016  00000+0  25983-4 0  9992
2 57166  98.6320  77.5008 0003092 231.8473 128.2428 14.24031056133374
TIANMU-1 07             
1 57399U 23101A   26019.63396500  .00008300  00000+0  30017-3 0  9994
2 57399  97.2820  73.6527 0002634 320.7061  39.3988 15.28679179138947
TIANMU-1 08             
1 57400U 23101B   26019.60224968  .00008167  00000+0  29633-3 0  9995
2 57400  97.2808  73.4108 0004408 314.7741  45.3140 15.28574638138938
TIANMU-1 09             
1 57401U 23101C   26019.65265980  .00007965  00000+0  28792-3 0  9990
2 57401  97.2765  72.9560 0003844 320.0774  40.0183 15.28707147138949
TIANMU-1 10             
1 57402U 23101D   26019.62158949  .00008448  00000+0  30520-3 0  9993
2 57402  97.2846  73.8156 0005541 316.2806  43.7995 15.28699426138930
FENGYUN 3F              
1 57490U 23111A   26019.64325834  .00000108  00000+0  71611-4 0  9994
2 57490  98.7025  92.3154 0001319 112.5924 247.5393 14.19904633127788
ARKTIKA-M 2             
1 58584U 23198A   26018.21799093  .00000179  00000+0  00000+0 0  9995
2 58584  63.2244 170.9189 6869094 267.9568  18.8398  2.00601078 15314
TIANMU-1 11             
1 58645U 23205A   26019.61095468  .00007564  00000+0  30450-3 0  9993
2 58645  97.3577  43.5765 0009737 159.0437 201.1202 15.25114582114865
TIANMU-1 12             
1 58646U 23205B   26019.64061563  .00007131  00000+0  28822-3 0  9996
2 58646  97.3565  43.3986 0008461 141.6271 218.5571 15.25012718114850
TIANMU-1 13             
1 58647U 23205C   26019.60745644  .00007612  00000+0  30698-3 0  9990
2 58647  97.3593  43.5834 0009135 126.2764 233.9319 15.25057418114847
TIANMU-1 14             
1 58648U 23205D   26019.59131116  .00007393  00000+0  29835-3 0  9999
2 58648  97.3525  42.8813 0009842 130.5777 229.6319 15.25037327114848
TIANMU-1 19             
1 58660U 23208A   26019.58994360  .00010811  00000+0  39047-3 0  9998
2 58660  97.4387 135.5733 0006301 118.5710 241.6164 15.28638240114600
TIANMU-1 20             
1 58661U 23208B   26019.61243823  .00010931  00000+0  38049-3 0  9998
2 58661  97.4325 136.0806 0008426 127.7249 232.4756 15.29830437114685
TIANMU-1 21             
1 58662U 23208C   26019.61314410  .00012160  00000+0  38969-3 0  9997
2 58662  97.4375 138.1637 0007884 123.1311 237.0689 15.32480666114790
TIANMU-1 22             
1 58663U 23208D   26019.59651067  .00010358  00000+0  37779-3 0  9992
2 58663  97.4381 135.6202 0004730 136.2186 223.9430 15.28335973114614
TIANMU-1 15             
1 58700U 24004A   26019.65408315  .00008254  00000+0  33350-3 0  9995
2 58700  97.4630 205.9940 0007823 143.7532 216.4237 15.24985351113121
TIANMU-1 16             
1 58701U 24004B   26019.63854082  .00007837  00000+0  31664-3 0  9992
2 58701  97.4571 205.3379 0006181 144.2087 215.9566 15.25013514113126
TIANMU-1 17             
1 58702U 24004C   26019.62208657  .00007457  00000+0  30113-3 0  9999
2 58702  97.4603 205.7509 0005331 143.6703 216.4897 15.25053065113113
TIANMU-1 18             
1 58703U 24004D   26019.67153573  .00007946  00000+0  32093-3 0  9993
2 58703  97.4620 206.0032 0004790 140.8460 219.3125 15.25025067113123
INSAT-3DS               
1 58990U 24033A   26019.52597443 -.00000142  00000+0  00000+0 0  9996
2 58990   0.0716 262.6312 0001605  67.8454  59.8773  1.00271363 45578
METEOR-M2 4             
1 59051U 24039A   26019.62015751  .00000031  00000+0  33404-4 0  9994
2 59051  98.6822 340.9456 0006098 235.6406 124.4195 14.22407874 98144
GOES 19                 
1 60133U 24119A   26019.56601469 -.00000234  00000+0  00000+0 0  9993
2 60133   0.0481 241.1462 0001002 108.2770 258.1011  1.00272926  5479
FENGYUN 3H              
1 65815U 25219A   26019.56943927  .00000072  00000+0  54470-4 0  9999
2 65815  98.6630 323.3471 0001403 101.5675 258.5659 14.19916133 16291
